[{"OBJECT_NAME":"STARLINK-2370","OBJECT_ID":"2021-021BC","EPOCH":"2026-03-09T20:41:53.433600","MEAN_MOTION":15.3018099,"ECCENTRICITY":0.00015673,"INCLINATION":53.1609,"RA_OF_ASC_NODE":267.3167,"ARG_OF_PERICENTER":64.3232,"MEAN_ANOMALY":295.793,"EPHEMERIS_TYPE":0,"CLASSIFICATION_TYPE":"U","NORAD_CAT_ID":47910,"ELEMENT_SET_NO":999,"REV_AT_EPOCH":27628,"BSTAR":-9.3434971e-5,"MEAN_MOTION_DOT":-3.124e-5,"MEAN_MOTION_DDOT":0},{"OBJECT_NAME":"SL-3 R\/B","OBJECT_ID":"1981-065B","EPOCH":"2026-03-09T21:58:16.284000","MEAN_MOTION":15.33300883,"ECCENTRICITY":0.00117648,"INCLINATION":97.6337,"RA_OF_ASC_NODE":111.1786,"ARG_OF_PERICENTER":10.529,"MEAN_ANOMALY":349.6196,"EPHEMERIS_TYPE":0,"CLASSIFICATION_TYPE":"U","NORAD_CAT_ID":12586,"ELEMENT_SET_NO":999,"REV_AT_EPOCH":43499,"BSTAR":0.00030084921,"MEAN_MOTION_DOT":9.62e-5,"MEAN_MOTION_DDOT":0}]
